GLOBALSTAR M024         
1 25883U 99043A   25277.78362605  .00000020  00000+0  29914-2 0  9999
2 25883  51.9988 133.3338 0000572 319.1254 138.0010 11.10169188127033
GLOBALSTAR M027         
1 25884U 99043B   25277.83506405 -.00000080  00000+0 -61420-3 0  9991
2 25884  52.0198 214.3059 0021042 167.0299 193.1039 11.04372889153357
GLOBALSTAR M054         
1 25885U 99043C   25276.59932110 -.00000082  00000+0 -28217-3 0  9999
2 25885  52.0163 326.1688 0005172   3.5676 154.3577 11.39220725131406
GLOBALSTAR M053         
1 25886U 99043D   25277.74948697 -.00000054  00000+0  43519-3 0  9995
2 25886  51.9975 276.5861 0003329 272.2248 259.2341 11.27667469131804
GLOBALSTAR M058         
1 25907U 99049A   25277.79676432 -.00000085  00000+0 -34641-5 0  9998
2 25907  51.9924 176.4878 0002535 109.4560 250.6549 11.93202865554626
GLOBALSTAR M050         
1 25908U 99049B   25277.81197412 -.00000133  00000+0 -51109-3 0  9998
2 25908  51.9977 175.9331 0008304 251.2170 151.3915 12.07458589161435
GLOBALSTAR M033         
1 25909U 99049C   25277.69891355 -.00000140  00000+0 -46789-3 0  9998
2 25909  51.9932  40.5069 0014611 128.9973 231.2177 12.20297112549112
GLOBALSTAR M055         
1 25910U 99049D   25277.60576689 -.00000067  00000+0  23109-3 0  9999
2 25910  52.0035  46.1899 0006817   5.5405 354.5521 12.29433180181741
